NORAD_CAT_ID,OBJECT_NAME,OBJECT_TYPE,EPOCH,MEAN_MOTION,ECCENTRICITY,INCLINATION,RA_OF_ASC_NODE,ARG_OF_PERICENTER,MEAN_ANOMALY,BSTAR,MEAN_MOTION_DOT,MEAN_MOTION_DDOT,TLE_LINE0,TLE_LINE1,TLE_LINE2,SEMIMAJOR_AXIS,PERIOD,APOGEE,PERIGEE,DECAYED
54787.0,STARLINK-5441,PAYLOAD,2023-03-14 18:52:08,15.08859889,0.000115,53.2157,261.0865,83.4281,276.6842,0.00057572,8.891e-05,0.0,0 STARLINK-5441,1 54787U 22175AF  23073.78621499  .00008891  00000-0  57572-3 0  9994,2 54787  53.2157 261.0865 0001150  83.4281 276.6842 15.08859889 13074,6917.82,95.436,540.48,538.889,0.0
54787.0,STARLINK-5441,PAYLOAD,2023-03-14 20:27:31,15.08864253,0.0001174,53.2157,260.789,81.5728,278.5397,0.00067924,0.00010546,0.0,0 STARLINK-5441,1 54787U 22175AF  23073.85245350  .00010546  00000-0  67924-3 0  9992,2 54787  53.2157 260.7890 0001174  81.5728 278.5397 15.08864253 15247,6917.806,95.436,540.483,538.859,0.0
54787.0,STARLINK-5441,PAYLOAD,2023-03-15 10:46:00,15.08847569,0.0001492,53.2157,258.113,74.3114,285.8042,4.1804e-05,3.78e-06,0.0,0 STARLINK-5441,1 54787U 22175AF  23074.44861439  .00000378  00000-0  41804-4 0  9992,2 54787  53.2157 258.1130 0001492  74.3114 285.8042 15.08847569 13176,6917.857,95.437,540.754,538.69,0.0
54787.0,STARLINK-5441,PAYLOAD,2023-03-15 12:21:23,15.08849549,0.0001533,53.2155,257.8151,75.3269,284.7893,0.00012088,1.637e-05,0.0,0 STARLINK-5441,1 54787U 22175AF  23074.51485372  .00001637  00000-0  12088-3 0  9998,2 54787  53.2155 257.8151 0001533  75.3269 284.7893 15.08849549 15344,6917.851,95.437,540.777,538.656,0.0
54787.0,STARLINK-5441,PAYLOAD,2023-03-15 18:42:55,15.08863197,0.0001516,53.2158,256.6258,78.9893,281.127,0.00073173,0.00011384,0.0,0 STARLINK-5441,1 54787U 22175AF  23074.77980953  .00011384  00000-0  73173-3 0  9993,2 54787  53.2158 256.6258 0001516  78.9893 281.1270 15.08863197 13225,6917.809,95.436,540.723,538.626,0.0
54787.0,STARLINK-5441,PAYLOAD,2023-03-15 21:53:41,15.08860197,0.0001566,53.2157,256.0318,75.8651,284.2515,0.0013247,0.00020869,0.0,0 STARLINK-5441,1 54787U 22175AF  23074.91228906  .00020869  00000-0  13247-2 0  9995,2 54787  53.2157 256.0318 0001566  75.8651 284.2515 15.08860197 15403,6917.819,95.436,540.767,538.6,0.0
54787.0,STARLINK-5441,PAYLOAD,2023-03-16 02:39:51,15.0882904,0.0002047,53.2157,255.1389,67.5143,292.6065,-0.00047532,-7.843e-05,0.0,0 STARLINK-5441,1 54787U 22175AF  23075.11101493 -.00007843  00000-0 -47532-3 0  9993,2 54787  53.2157 255.1389 0002047  67.5143 292.6065 15.08829040 13278,6917.914,95.438,541.195,538.363,0.0
54787.0,STARLINK-5441,PAYLOAD,2023-03-16 12:12:10,15.08830216,0.0001465,53.2156,253.3549,90.5749,269.5411,2.4229e-06,-2.49e-06,0.0,0 STARLINK-5441,1 54787U 22175AF  23075.50845595 -.00000249  00000-0  24229-5 0  9996,2 54787  53.2156 253.3549 0001465  90.5749 269.5411 15.08830216 15497,6917.91,95.438,540.789,538.762,0.0
54787.0,STARLINK-5441,PAYLOAD,2023-03-16 20:09:06,15.08829687,0.000144,53.2158,251.869,88.7338,271.3819,0.0012584,0.0001979,0.0,0 STARLINK-5441,1 54787U 22175AF  23075.83966017  .00019790  00000-0  12584-2 0  9993,2 54787  53.2158 251.8690 0001440  88.7338 271.3819 15.08829687 15544,6917.912,95.438,540.773,538.781,0.0
54787.0,STARLINK-5441,PAYLOAD,2023-03-16 23:19:52,15.08834485,0.0001434,53.2157,251.2742,89.2258,270.8898,0.0014827,0.00023384,0.0,0 STARLINK-5441,1 54787U 22175AF  23075.97214089  .00023384  00000-0  14827-2 0  9999,2 54787  53.2157 251.2742 0001434  89.2258 270.8898 15.08834485 13401,6917.897,95.438,540.754,538.77,0.0
54787.0,STARLINK-5441,PAYLOAD,2023-03-17 08:52:12,15.08834599,0.0001428,53.2158,249.4897,91.5457,268.5698,0.00077336,0.0001204,0.0,0 STARLINK-5441,1 54787U 22175AF  23076.36958397  .00012040  00000-0  77336-3 0  9992,2 54787  53.2158 249.4897 0001428  91.5457 268.5698 15.08834599 13466,6917.897,95.438,540.75,538.774,0.0
54787.0,STARLINK-5441,PAYLOAD,2023-03-17 12:02:58,15.08839238,0.0001433,53.2158,248.8949,91.1244,268.9912,0.00085212,0.00013299,0.0,0 STARLINK-5441,1 54787U 22175AF  23076.50206401  .00013299  00000-0  85212-3 0  9999,2 54787  53.2158 248.8949 0001433  91.1244 268.9912 15.08839238 15643,6917.883,95.438,540.739,538.756,0.0
54787.0,STARLINK-5441,PAYLOAD,2023-03-17 19:59:53,15.08855162,0.00014,53.2156,247.4086,89.4279,270.6874,0.0012573,0.00019787,0.0,0 STARLINK-5441,1 54787U 22175AF  23076.83326129  .00019787  00000-0  12573-2 0  9992,2 54787  53.2156 247.4086 0001400  89.4279 270.6874 15.08855162 15696,6917.834,95.437,540.668,538.731,0.0
54787.0,STARLINK-5441,PAYLOAD,2023-03-18 10:18:21,15.08849232,0.0001275,53.2156,244.7315,94.1506,265.9632,0.00043899,6.707e-05,0.0,0 STARLINK-5441,1 54787U 22175AF  23077.42941993  .00006707  00000-0  43899-3 0  9994,2 54787  53.2156 244.7315 0001275  94.1506 265.9632 15.08849232 13628,6917.852,95.437,540.599,538.835,0.0
54787.0,STARLINK-5441,PAYLOAD,2023-03-18 21:26:03,15.08864287,0.0001209,53.2155,242.6503,91.7998,268.3133,0.00081792,0.00012762,0.0,0 STARLINK-5441,1 54787U 22175AF  23077.89309380  .00012762  00000-0  81792-3 0  9995,2 54787  53.2155 242.6503 0001209  91.7998 268.3133 15.08864287 15855,6917.806,95.436,540.508,538.835,0.0
54787.0,STARLINK-5441,PAYLOAD,2023-03-18 23:01:26,15.08868268,0.0001211,53.2154,242.3529,92.0511,268.062,0.00095078,0.00014888,0.0,0 STARLINK-5441,1 54787U 22175AF  23077.95933245  .00014888  00000-0  95078-3 0  9998,2 54787  53.2154 242.3529 0001211  92.0511 268.0620 15.08868268 13700,6917.794,95.436,540.497,538.821,0.0
54787.0,STARLINK-5441,PAYLOAD,2023-03-19 13:19:55,15.08838272,0.0001205,53.2152,239.6764,84.2032,275.9097,7.3096e-05,8.76e-06,0.0,0 STARLINK-5441,1 54787U 22175AF  23078.55549931  .00000876  00000-0  73096-4 0  9999,2 54787  53.2152 239.6764 0001205  84.2032 275.9097 15.08838272 15958,6917.886,95.438,540.584,538.917,0.0
54787.0,STARLINK-5441,PAYLOAD,2023-03-19 19:41:27,15.0884721,0.000119,53.2153,238.4869,76.6954,283.4171,0.00060094,9.291e-05,0.0,0 STARLINK-5441,1 54787U 22175AF  23078.82045879  .00009291  00000-0  60094-3 0  9994,2 54787  53.2153 238.4869 0001190  76.6954 283.4171 15.08847210 15996,6917.858,95.437,540.547,538.9,0.0
54787.0,STARLINK-5441,PAYLOAD,2023-03-20 11:35:19,15.08845947,0.0001224,53.2154,235.5132,81.302,278.811,0.00044613,6.821e-05,0.0,0 STARLINK-5441,1 54787U 22175AF  23079.48286029  .00006821  00000-0  44613-3 0  9996,2 54787  53.2154 235.5132 0001224  81.3020 278.8110 15.08845947 13931,6917.862,95.437,540.574,538.88,0.0
54787.0,STARLINK-5441,PAYLOAD,2023-03-20 17:56:51,15.08861652,0.0001232,53.2154,234.3236,78.4726,281.6405,0.0011169,0.00017543,0.0,0 STARLINK-5441,1 54787U 22175AF  23079.74781739  .00017543  00000-0  11169-2 0  9995,2 54787  53.2154 234.3236 0001232  78.4726 281.6405 15.08861652 16137,6917.814,95.436,540.531,538.827,0.0
54787.0,STARLINK-5441,PAYLOAD,2023-03-20 22:43:00,15.08872448,0.0001233,53.2155,233.4315,77.6788,282.4342,0.0013089,0.00020623,0.0,0 STARLINK-5441,1 54787U 22175AF  23079.94653326  .00020623  00000-0  13089-2 0  9993,2 54787  53.2155 233.4315 0001233  77.6788 282.4342 15.08872448 14004,6917.781,95.436,540.499,538.793,0.0
54787.0,STARLINK-5441,PAYLOAD,2023-03-21 09:50:42,15.08841578,0.0001089,53.2157,231.3496,73.9284,286.1828,0.00018574,2.67e-05,0.0,0 STARLINK-5441,1 54787U 22175AF  23080.41021903  .00002670  00000-0  18574-3 0  9994,2 54787  53.2157 231.3496 0001089  73.9284 286.1828 15.08841578 14079,6917.876,95.437,540.494,538.987,0.0
54787.0,STARLINK-5441,PAYLOAD,2023-03-21 13:01:29,15.08848744,0.000133,53.2157,230.755,90.2538,269.8607,0.00035006,5.289e-05,0.0,0 STARLINK-5441,1 54787U 22175AF  23080.54269688  .00005289  00000-0  35006-3 0  9990,2 54787  53.2157 230.7550 0001330  90.2538 269.8607 15.08848744 16253,6917.854,95.437,540.639,538.799,0.0
54787.0,STARLINK-5441,PAYLOAD,2023-03-22 12:52:16,15.08843985,0.0001216,53.2165,226.2946,99.3184,260.7946,0.00083838,0.00013081,0.0,0 STARLINK-5441,1 54787U 22175AF  23081.53629722  .00013081  00000-0  83838-3 0  9994,2 54787  53.2165 226.2946 0001216  99.3184 260.7946 15.08843985 14246,6917.868,95.437,540.574,538.892,0.0
54787.0,STARLINK-5441,PAYLOAD,2023-03-22 16:03:02,15.08851146,0.0001248,53.2166,225.6999,100.1087,260.0046,0.001949,0.00030876,0.0,0 STARLINK-5441,1 54787U 22175AF  23081.66877745  .00030876  00000-0  19490-2 0  9991,2 54787  53.2166 225.6999 0001248 100.1087 260.0046 15.08851146 14260,6917.846,95.437,540.575,538.848,0.0
54787.0,STARLINK-5441,PAYLOAD,2023-03-23 12:43:03,15.08842271,0.0001305,53.2166,221.8336,96.5168,263.5973,0.00043878,6.703e-05,0.0,0 STARLINK-5441,1 54787U 22175AF  23082.52990048  .00006703  00000-0  43878-3 0  9999,2 54787  53.2166 221.8336 0001305  96.5168 263.5973 15.08842271 14395,6917.873,95.437,540.641,538.836,0.0
54787.0,STARLINK-5441,PAYLOAD,2023-03-23 14:18:26,15.08841665,0.0001251,53.2168,221.5355,87.3382,272.7753,0.00028429,4.24e-05,0.0,0 STARLINK-5441,1 54787U 22175AF  23082.59614047  .00004240  00000-0  28429-3 0  9997,2 54787  53.2168 221.5355 0001251  87.3382 272.7753 15.08841665 16566,6917.875,95.437,540.606,538.875,0.0
54787.0,STARLINK-5441,PAYLOAD,2023-03-23 15:53:49,15.08847096,0.000125,53.2165,221.238,96.385,263.7284,0.00025949,3.845e-05,0.0,0 STARLINK-5441,1 54787U 22175AF  23082.66237804  .00003845  00000-0  25949-3 0  9991,2 54787  53.2165 221.2380 0001250  96.3850 263.7284 15.08847096 16571,6917.859,95.437,540.588,538.859,0.0
54787.0,STARLINK-5441,PAYLOAD,2023-03-24 12:33:48,15.08881369,0.0001185,53.2172,217.3724,82.992,277.1207,0.00082846,0.00012936,0.0,0 STARLINK-5441,1 54787U 22175AF  23083.52347883  .00012936  00000-0  82846-3 0  9996,2 54787  53.2172 217.3724 0001185  82.9920 277.1207 15.08881369 14543,6917.754,95.435,540.439,538.799,0.0
54787.0,STARLINK-5441,PAYLOAD,2023-03-24 14:09:11,15.08889988,0.0001445,53.2172,217.0768,57.7762,302.337,0.0012454,0.00019615,0.0,0 STARLINK-5441,1 54787U 22175AF  23083.58971828  .00019615  00000-0  12454-2 0  9992,2 54787  53.2172 217.0768 0001445  57.7762 302.3370 15.08889988 16719,6917.728,95.434,540.592,538.593,0.0
